{"type": "FeatureCollection", "features": [ {"type": "Feature", "properties": {"norad_id": 66373, "name": "STARLINK-35809", "group": "last-30-days", "lat": -28.733059768180006, "lon": -58.343360336409575, "alt_km": 351.1667518918666, "timestamp": "2025-12-02T10:50:46.051228+00:00", "meta": {"OBJECT_NAME": "STARLINK-35809", "OBJECT_ID": "2025-254AB", "EPOCH": "2025-12-02T03:23:04.387200", "MEAN_MOTION": 15.74247538, "ECCENTRICITY": 0.0001567, "INCLINATION": 53.1568, "RA_OF_ASC_NODE": 327.4728, "ARG_OF_PERICENTER": 119.8507, "MEAN_ANOMALY": 240.2669, "EPHEMERIS_TYPE": 0, "CLASSIFICATION_TYPE": "U", "NORAD_CAT_ID": 66373, "ELEMENT_SET_NO": 999, "REV_AT_EPOCH": 401, "BSTAR": 0.0012653, "MEAN_MOTION_DOT": 0.00189387, "MEAN_MOTION_DDOT": 0}, "tle": {"line1": "1 66373U 25254AB  25336.14102300  .00189387  00000+0  12653-2 0  9997", "line2": "2 66373  53.1568 327.4728 0001567 119.8507 240.2669 15.74247538  4018"}}, "geometry": {"type": "Point", "coordinates": [-58.343360336409575, -28.733059768180006]}}, {"type": "Feature", "properties": {"norad_id": 66374, "name": "STARLINK-35831", "group": "last-30-days", "lat": -27.34281142172073, "lon": -56.88716812947448, "alt_km": 350.5968847043596, "timestamp": "2025-12-02T10:50:46.051238+00:00", "meta": {"OBJECT_NAME": "STARLINK-35831", "OBJECT_ID": "2025-254AC", "EPOCH": "2025-12-02T03:22:35.304096", "MEAN_MOTION": 15.74242498, "ECCENTRICITY": 0.0001259, "INCLINATION": 53.1568, "RA_OF_ASC_NODE": 327.4709, "ARG_OF_PERICENTER": 89.2043, "MEAN_ANOMALY": 270.9121, "EPHEMERIS_TYPE": 0, "CLASSIFICATION_TYPE": "U", "NORAD_CAT_ID": 66374, "ELEMENT_SET_NO": 999, "REV_AT_EPOCH": 401, "BSTAR": 0.001272, "MEAN_MOTION_DOT": 0.00190365, "MEAN_MOTION_DDOT": 0}, "tle": {"line1": "1 66374U 25254AC  25336.14068639  .00190365  00000+0  12720-2 0  9997", "line2": "2 66374  53.1568 327.4709 0001259  89.2043 270.9121 15.74242498  4014"}}, "geometry": {"type": "Point", "coordinates": [-56.88716812947448, -27.34281142172073]}}, {"type": "Feature", "properties": {"norad_id": 66375, "name": "STARLINK-35826", "group": "last-30-days", "lat": -25.778018141887923, "lon": -55.310078061445715, "alt_km": 350.49497339588197, "timestamp": "2025-12-02T10:50:46.051248+00:00", "meta": {"OBJECT_NAME": "STARLINK-35826", "OBJECT_ID": "2025-254AD", "EPOCH": "2025-12-02T01:50:40.406784", "MEAN_MOTION": 15.74294515, "ECCENTRICITY": 0.0001435, "INCLINATION": 53.1565, "RA_OF_ASC_NODE": 327.7833, "ARG_OF_PERICENTER": 135.3868, "MEAN_ANOMALY": 224.7267, "EPHEMERIS_TYPE": 0, "CLASSIFICATION_TYPE": "U", "NORAD_CAT_ID": 66375, "ELEMENT_SET_NO": 999, "REV_AT_EPOCH": 400, "BSTAR": 0.0019909, "MEAN_MOTION_DOT": 0.00303057, "MEAN_MOTION_DDOT": 0}, "tle": {"line1": "1 66375U 25254AD  25336.07685656  .00303057  00000+0  19909-2 0  9994", "line2": "2 66375  53.1565 327.7833 0001435 135.3868 224.7267 15.74294515  4001"}}, "geometry": {"type": "Point", "coordinates": [-55.310078061445715, -25.778018141887923]}}, {"type": "Feature", "properties": {"norad_id": 66376, "name": "SHIYAN-32 01", "group": "last-30-days", "lat": 2.1240664435758037, "lon": -131.42728626681964, "alt_km": 431.089564876871, "timestamp": "2025-12-02T10:50:46.051258+00:00", "meta": {"OBJECT_NAME": "SHIYAN-32 01", "OBJECT_ID": "2025-255A", "EPOCH": "2025-12-02T03:03:29.323872", "MEAN_MOTION": 15.42214379, "ECCENTRICITY": 0.0013384, "INCLINATION": 52.9965, "RA_OF_ASC_NODE": 228.5112, "ARG_OF_PERICENTER": 9.3249, "MEAN_ANOMALY": 350.8001, "EPHEMERIS_TYPE": 0, "CLASSIFICATION_TYPE": "U", "NORAD_CAT_ID": 66376, "ELEMENT_SET_NO": 999, "REV_AT_EPOCH": 371, "BSTAR": 0.00058188, "MEAN_MOTION_DOT": 0.00025112, "MEAN_MOTION_DDOT": 0}, "tle": {"line1": "1 66376U 25255A   25336.12742273  .00025112  00000+0  58188-3 0  9997", "line2": "2 66376  52.9965 228.5112 0013384   9.3249 350.8001 15.42214379  3719"}}, "geometry": {"type": "Point", "coordinates": [-131.42728626681964, 2.1240664435758037]}}, {"type": "Feature", "properties": {"norad_id": 66377, "name": "CZ-11 DEB", "group": "last-30-days", "lat": 46.175714820492715, "lon": -81.36001743949451, "alt_km": 424.57258892614755, "timestamp": "2025-12-02T10:50:46.051268+00:00", "meta": {"OBJECT_NAME": "CZ-11 DEB", "OBJECT_ID": "2025-255B", "EPOCH": "2025-12-02T02:47:51.191808", "MEAN_MOTION": 15.43410893, "ECCENTRICITY": 0.0013911, "INCLINATION": 52.9966, "RA_OF_ASC_NODE": 228.4422, "ARG_OF_PERICENTER": 6.8822, "MEAN_ANOMALY": 353.2371, "EPHEMERIS_TYPE": 0, "CLASSIFICATION_TYPE": "U", "NORAD_CAT_ID": 66377, "ELEMENT_SET_NO": 999, "REV_AT_EPOCH": 357, "BSTAR": 0.00098482, "MEAN_MOTION_DOT": 0.00044688, "MEAN_MOTION_DDOT": 0}, "tle": {"line1": "1 66377U 25255B   25336.11656472  .00044688  00000+0  98482-3 0  9992", "line2": "2 66377  52.9966 228.4422 0013911   6.8822 353.2371 15.43410893  3570"}}, "geometry": {"type": "Point", "coordinates": [-81.36001743949451, 46.175714820492715]}}, {"type": "Feature", "properties": {"norad_id": 66378, "name": "SHIYAN-32 02", "group": "last-30-days", "lat": 52.96213260127238, "lon": -41.24141700243286, "alt_km": 426.08914963740335, "timestamp": "2025-12-02T10:50:46.051278+00:00", "meta": {"OBJECT_NAME": "SHIYAN-32 02", "OBJECT_ID": "2025-255C", "EPOCH": "2025-12-02T02:41:09.270240", "MEAN_MOTION": 15.43916368, "ECCENTRICITY": 0.0012616, "INCLINATION": 52.9979, "RA_OF_ASC_NODE": 228.4148, "ARG_OF_PERICENTER": 8.2276, "MEAN_ANOMALY": 351.8933, "EPHEMERIS_TYPE": 0, "CLASSIFICATION_TYPE": "U", "NORAD_CAT_ID": 66378, "ELEMENT_SET_NO": 999, "REV_AT_EPOCH": 357, "BSTAR": 0.001261, "MEAN_MOTION_DOT": 0.00058403, "MEAN_MOTION_DDOT": 0}, "tle": {"line1": "1 66378U 25255C   25336.11191285  .00058403  00000+0  12610-2 0  9997", "line2": "2 66378  52.9979 228.4148 0012616   8.2276 351.8933 15.43916368  3576"}}, "geometry": {"type": "Point", "coordinates": [-41.24141700243286, 52.96213260127238]}}, {"type": "Feature", "properties": {"norad_id": 66379, "name": "SHIYAN-32 03", "group": "last-30-days", "lat": 25.874908162041358, "lon": -111.63294153023716, "alt_km": 425.75243127784415, "timestamp": "2025-12-02T10:50:46.051287+00:00", "meta": {"OBJECT_NAME": "SHIYAN-32 03", "OBJECT_ID": "2025-255D", "EPOCH": "2025-12-02T02:55:43.715136", "MEAN_MOTION": 15.4257132, "ECCENTRICITY": 0.0015396, "INCLINATION": 52.9972, "RA_OF_ASC_NODE": 228.4783, "ARG_OF_PERICENTER": 10.206, "MEAN_ANOMALY": 349.9253, "EPHEMERIS_TYPE": 0, "CLASSIFICATION_TYPE": "U", "NORAD_CAT_ID": 66379, "ELEMENT_SET_NO": 999, "REV_AT_EPOCH": 359, "BSTAR": 0.00056342, "MEAN_MOTION_DOT": 0.00024622, "MEAN_MOTION_DDOT": 0}, "tle": {"line1": "1 66379U 25255D   25336.12203374  .00024622  00000+0  56342-3 0  9999", "line2": "2 66379  52.9972 228.4783 0015396  10.2060 349.9253 15.42571320  3596"}}, "geometry": {"type": "Point", "coordinates": [-111.63294153023716, 25.874908162041358]}}, {"type": "Feature", "properties": {"norad_id": 66380, "name": "STARLINK-35139", "group": "last-30-days", "lat": -9.585883330997154, "lon": -54.143724524051734, "alt_km": 449.3784325554934, "timestamp": "2025-12-02T10:50:46.051300+00:00", "meta": {"OBJECT_NAME": "STARLINK-35139", "OBJECT_ID": "2025-257A", "EPOCH": "2025-12-02T04:00:03.998880", "MEAN_MOTION": 15.39809698, "ECCENTRICITY": 9.66e-05, "INCLINATION": 53.1592, "RA_OF_ASC_NODE": 314.475, "ARG_OF_PERICENTER": 82.2418, "MEAN_ANOMALY": 124.0639, "EPHEMERIS_TYPE": 0, "CLASSIFICATION_TYPE": "U", "NORAD_CAT_ID": 66380, "ELEMENT_SET_NO": 999, "REV_AT_EPOCH": 473, "BSTAR": -0.0087437, "MEAN_MOTION_DOT": -0.00337212, "MEAN_MOTION_DDOT": 0}, "tle": {"line1": "1 66380U 25257A   25336.16671295 -.00337212  00000+0 -87437-2 0  9990", "line2": "2 66380  53.1592 314.4750 0000966  82.2418 124.0639 15.39809698  4737"}}, "geometry": {"type": "Point", "coordinates": [-54.143724524051734, -9.585883330997154]}}, {"type": "Feature", "properties": {"norad_id": 66381, "name": "STARLINK-35158", "group": "last-30-days", "lat": -8.12929073990842, "lon": -53.02166346650593, "alt_km": 449.313604224335, "timestamp": "2025-12-02T10:50:46.051310+00:00", "meta": {"OBJECT_NAME": "STARLINK-35158", "OBJECT_ID": "2025-257B", "EPOCH": "2025-12-02T04:00:03.998880", "MEAN_MOTION": 15.39808271, "ECCENTRICITY": 0.0001216, "INCLINATION": 53.1591, "RA_OF_ASC_NODE": 314.4707, "ARG_OF_PERICENTER": 90.3966, "MEAN_ANOMALY": 117.7462, "EPHEMERIS_TYPE": 0, "CLASSIFICATION_TYPE": "U", "NORAD_CAT_ID": 66381, "ELEMENT_SET_NO": 999, "REV_AT_EPOCH": 479, "BSTAR": -0.008705, "MEAN_MOTION_DOT": -0.00335779, "MEAN_MOTION_DDOT": 0}, "tle": {"line1": "1 66381U 25257B   25336.16671295 -.00335779  00000+0 -87050-2 0  9998", "line2": "2 66381  53.1591 314.4707 0001216  90.3966 117.7462 15.39808271  4791"}}, "geometry": {"type": "Point", "coordinates": [-53.02166346650593, -8.12929073990842]}}, {"type": "Feature", "properties": {"norad_id": 66382, "name": "STARLINK-35639", "group": "last-30-days", "lat": 9.485125230422323, "lon": -39.72316602381903, "alt_km": 440.1352799578881, "timestamp": "2025-12-02T10:50:46.051321+00:00", "meta": {"OBJECT_NAME": "STARLINK-35639", "OBJECT_ID": "2025-257C", "EPOCH": "2025-12-02T04:00:03.998880", "MEAN_MOTION": 15.43069449, "ECCENTRICITY": 0.0001547, "INCLINATION": 53.1589, "RA_OF_ASC_NODE": 314.4308, "ARG_OF_PERICENTER": 87.8277, "MEAN_ANOMALY": 139.5882, "EPHEMERIS_TYPE": 0, "CLASSIFICATION_TYPE": "U", "NORAD_CAT_ID": 66382, "ELEMENT_SET_NO": 999, "REV_AT_EPOCH": 479, "BSTAR": -0.051324, "MEAN_MOTION_DOT": -0.02047178, "MEAN_MOTION_DDOT": 0}, "tle": {"line1": "1 66382U 25257C   25336.16671295 -.02047178  00000+0 -51324-1 0  9998", "line2": "2 66382  53.1589 314.4308 0001547  87.8277 139.5882 15.43069449  4798"}}, "geometry": {"type": "Point", "coordinates": [-39.72316602381903, 9.485125230422323]}}]}